{
"type": "FeatureCollection",
"name": "03_waupasa_twi_concesiones",
"xy_coordinate_resolution": 1e-06,
"features": [
{ "type": "Feature", "properties": { "fid": 1, "LOTE": "Caribe", "Titular": "Nicaragua Xinxin Linze Mineria Group SA", "TERRITORIO": "Waupasa Twi", "fuente": "China", "layer": "Mapa_Concesiones — 01_chinas", "path": "C:\\x\\Mapa_Concesiones.gpkg|layername=01_chinas", "HECTAREAS": 2090.9882889753389, "km2": 20.909882889753391 }, "geometry": { "type": "MultiPolygon", "coordinates": [ [ [ [ -83.686543, 14.160413 ], [ -83.687079, 14.123403 ], [ -83.639908, 14.122749 ], [ -83.639364, 14.159756 ], [ -83.686543, 14.160413 ] ] ] ] } },
{ "type": "Feature", "properties": { "fid": 3, "LOTE": "Puerto Cabezas", "Titular": "Zhong Fu Devolopment SA", "TERRITORIO": "Waupasa Twi", "fuente": "China", "layer": "Mapa_Concesiones — 01_chinas", "path": "C:\\x\\Mapa_Concesiones.gpkg|layername=01_chinas", "HECTAREAS": 755.41571016978446, "km2": 7.5541571016978448 }, "geometry": { "type": "MultiPolygon", "coordinates": [ [ [ [ -83.677168, 14.009057 ], [ -83.677128, 14.011855 ], [ -83.684709, 14.011959 ], [ -83.684678, 14.014125 ], [ -83.694015, 14.014253 ], [ -83.693977, 14.016961 ], [ -83.704793, 14.017109 ], [ -83.705051, 13.999055 ], [ -83.658829, 13.998422 ], [ -83.658679, 14.008802 ], [ -83.677168, 14.009057 ] ] ] ] } },
{ "type": "Feature", "properties": { "fid": 19, "LOTE": "El Encanto I", "Titular": "Zhong Fu Development", "TERRITORIO": "Waupasa Twi", "fuente": "China", "layer": "Mapa_Concesiones — 01_chinas", "path": "C:\\x\\Mapa_Concesiones.gpkg|layername=01_chinas", "HECTAREAS": 16237.867311394184, "km2": 162.37867311394186 }, "geometry": { "type": "MultiPolygon", "coordinates": [ [ [ [ -83.629533, 14.100058 ], [ -83.628362, 14.179488 ], [ -83.683871, 14.180264 ], [ -83.683608, 14.198317 ], [ -83.720619, 14.198827 ], [ -83.721397, 14.144665 ], [ -83.761234, 14.145206 ], [ -83.761766, 14.143268 ], [ -83.763356, 14.100338 ], [ -83.74738, 14.062867 ], [ -83.753088, 14.064232 ], [ -83.781831, 14.049357 ], [ -83.784928, 14.04338 ], [ -83.794125, 14.037295 ], [ -83.676714, 14.035709 ], [ -83.676616, 14.042524 ], [ -83.678327, 14.042548 ], [ -83.678261, 14.047106 ], [ -83.679879, 14.047128 ], [ -83.679768, 14.054846 ], [ -83.681247, 14.054867 ], [ -83.681033, 14.06967 ], [ -83.678675, 14.069638 ], [ -83.678628, 14.072933 ], [ -83.676177, 14.072899 ], [ -83.675774, 14.100701 ], [ -83.629533, 14.100058 ] ], [ [ -83.639267, 14.161585 ], [ -83.639811, 14.124578 ], [ -83.686983, 14.125233 ], [ -83.686446, 14.162242 ], [ -83.639267, 14.161585 ] ], [ [ -83.69227, 14.111465 ], [ -83.692279, 14.111465 ], [ -83.692203, 14.1167 ], [ -83.692194, 14.1167 ], [ -83.692187, 14.117179 ], [ -83.677389, 14.116975 ], [ -83.677396, 14.116496 ], [ -83.677386, 14.116496 ], [ -83.677462, 14.111261 ], [ -83.677471, 14.111261 ], [ -83.67748, 14.110656 ], [ -83.692279, 14.11086 ], [ -83.69227, 14.111465 ] ] ] ] } },
{ "type": "Feature", "properties": { "fid": 23, "LOTE": "El Encanto II", "Titular": "Zhong Fu Development", "TERRITORIO": "Waupasa Twi", "fuente": "China", "layer": "Mapa_Concesiones — 01_chinas", "path": "C:\\x\\Mapa_Concesiones.gpkg|layername=01_chinas", "HECTAREAS": 2888.533421618999, "km2": 28.885334216189992 }, "geometry": { "type": "MultiPolygon", "coordinates": [ [ [ [ -83.671844, 14.180097 ], [ -83.6714, 14.21043 ], [ -83.746023, 14.198123 ], [ -83.74676, 14.198001 ], [ -83.761234, 14.145206 ], [ -83.721397, 14.144665 ], [ -83.720619, 14.198827 ], [ -83.683608, 14.198317 ], [ -83.683871, 14.180264 ], [ -83.671844, 14.180097 ] ] ] ] } },
{ "type": "Feature", "properties": { "fid": 28, "LOTE": "Yulu Awaskira", "Titular": "Nicaragua Xinxin Linze", "TERRITORIO": "Waupasa Twi", "fuente": "China", "layer": "Mapa_Concesiones — 01_chinas", "path": "C:\\x\\Mapa_Concesiones.gpkg|layername=01_chinas", "HECTAREAS": 4850.0, "km2": 48.5 }, "geometry": { "type": "MultiPolygon", "coordinates": [ [ [ [ -83.675807, 14.098444 ], [ -83.677072, 14.010886 ], [ -83.630849, 14.010247 ], [ -83.629567, 14.097801 ], [ -83.675807, 14.098444 ] ] ] ] } },
{ "type": "Feature", "properties": { "fid": 77, "LOTE": "VANESSA", "Titular": "Osymar y Cia. Ltda.", "TERRITORIO": "Waupasa Twi", "fuente": "capa21", "layer": "Mapa_Concesiones — 03_capa21", "path": "C:\\x\\Mapa_Concesiones.gpkg|layername=03_capa21", "HECTAREAS": 92.916017201415556, "km2": 0.92916017201415557 }, "geometry": { "type": "MultiPolygon", "coordinates": [ [ [ [ -83.69227, 14.111465 ], [ -83.677471, 14.111261 ], [ -83.677462, 14.111261 ], [ -83.677386, 14.116496 ], [ -83.677396, 14.116496 ], [ -83.692194, 14.1167 ], [ -83.692203, 14.1167 ], [ -83.692279, 14.111465 ], [ -83.69227, 14.111465 ] ] ] ] } },
{ "type": "Feature", "properties": { "fid": 96, "LOTE": "WALPA TARA", "Titular": "Calibre Mining Nicaragua, S. A.", "TERRITORIO": "Waupasa Twi", "fuente": "no_china_20_26", "layer": "Mapa_Concesiones — No_chinas", "path": "C:\\x\\Mapa_Concesiones.gpkg|layername=No_chinas", "HECTAREAS": 27490.979560131949, "km2": 274.9097956013195 }, "geometry": { "type": "MultiPolygon", "coordinates": [ [ [ [ -83.901655, 13.892501 ], [ -83.901631, 13.892479 ], [ -83.899423, 13.890572 ], [ -83.899423, 13.890572 ], [ -83.742595, 13.888529 ], [ -83.740513, 14.036578 ], [ -83.794125, 14.037295 ], [ -83.815079, 14.023429 ], [ -83.816531, 14.022881 ], [ -83.906085, 13.989051 ], [ -83.942217, 13.981798 ], [ -83.912747, 13.913 ], [ -83.912521, 13.912472 ], [ -83.912017, 13.911295 ], [ -83.912012, 13.911285 ], [ -83.905415, 13.895877 ], [ -83.905344, 13.895712 ], [ -83.905327, 13.895673 ], [ -83.904855, 13.895265 ], [ -83.904853, 13.895264 ], [ -83.903376, 13.893987 ], [ -83.903367, 13.893979 ], [ -83.902382, 13.893128 ], [ -83.902382, 13.893128 ], [ -83.901655, 13.892501 ] ] ] ] } }
]
}
